SL-14 R/B               
1 21423U 91042B   26028.98457819  .00000604  00000+0  73463-4 0  9993
2 21423  82.4908 257.4240 0017475  16.5754 343.6027 14.81791484847192
ERS-1                   
1 21574U 91050A   26028.93667140  .00000585  00000+0  20194-3 0  9994
2 21574  98.7896  46.1719 0031308 321.8022  38.0947 14.39413886810017
ARIANE 40 R/B           
1 21610U 91050F   26028.73537828  .00000540  00000+0  17415-3 0  9995
2 21610  98.2095  82.4552 0003155 173.7830 186.3401 14.42861715813233
INTERCOSMOS 25          
1 21819U 91086A   26028.86190544  .00001886  00000+0  37091-3 0  9995
2 21819  82.6093 334.0762 1486307 202.7530 150.0493 12.11892313491865
SL-8 R/B                
1 21876U 92008B   26028.87463287  .00000071  00000+0  57693-4 0  9997
2 21876  82.9282 297.3946 0033411 245.2591 184.5605 13.75968648703946
SL-8 R/B                
1 21938U 92020B   26028.98806459  .00000178  00000+0  16814-3 0  9991
2 21938  82.9313 183.2311 0029875  50.3795  67.8906 13.75542722695677
USA 81                  
1 21949U 92023A   26028.83968968  .00000346  00000+0  12090-3 0  9993
2 21949  85.0116 154.4168 0002261 111.7825 248.3608 14.32351526 89081
COSMOS 2219             
1 22219U 92076A   26028.62445798 -.00000218  00000+0 -89806-4 0  9990
2 22219  71.0604 101.8284 0020747 262.6997  97.1767 14.14079890712719
SL-16 R/B               
1 22220U 92076B   26028.95445861  .00000062  00000+0  54851-4 0  9996
2 22220  70.9988 272.0769 0012192 165.7513 284.0789 14.16850513716205
COSMOS 2221             
1 22236U 92080A   26028.84292952  .00003286  00000+0  29016-3 0  9992
2 22236  82.5063 317.2373 0013733 333.4823  26.5695 14.96024180774837
SL-16 R/B               
1 22285U 92093B   26028.59878293 -.00000094  00000+0 -23867-4 0  9995
2 22285  71.0216  88.4310 0004718 336.4516  23.6390 14.15443592707487
COSMOS 2228             
1 22286U 92094A   26028.95214468  .00003725  00000+0  32031-3 0  9999
2 22286  82.5175 275.3593 0019591  76.3731 283.9672 14.97003073770113
