CCSDS_OMM_VERS = 2.0
CREATION_DATE  = 
ORIGINATOR     = 

OBJECT_NAME    = SL-14 R/B
OBJECT_ID      = 1991-042B
CENTER_NAME    = EARTH
REF_FRAME      = TEME
TIME_SYSTEM    = UTC
MEAN_ELEMENT_THEORY = SGP/SGP4

EPOCH          = 2026-01-28T23:37:47.555616
MEAN_MOTION    = 14.81791484
ECCENTRICITY   = .00174753
INCLINATION    = 82.4908
RA_OF_ASC_NODE = 257.4240
ARG_OF_PERICENTER = 16.5754
MEAN_ANOMALY   = 343.6027

EPHEMERIS_TYPE = 0
CLASSIFICATION_TYPE = U
NORAD_CAT_ID   = 21423
ELEMENT_SET_NO = 999
REV_AT_EPOCH   = 84719
BSTAR          = .73463133E-4
MEAN_MOTION_DOT = .604E-5
MEAN_MOTION_DDOT = 0

CCSDS_OMM_VERS = 2.0
CREATION_DATE  = 
ORIGINATOR     = 

OBJECT_NAME    = ERS-1
OBJECT_ID      = 1991-050A
CENTER_NAME    = EARTH
REF_FRAME      = TEME
TIME_SYSTEM    = UTC
MEAN_ELEMENT_THEORY = SGP/SGP4

EPOCH          = 2026-01-28T22:28:48.408960
MEAN_MOTION    = 14.39413886
ECCENTRICITY   = .0031308
INCLINATION    = 98.7896
RA_OF_ASC_NODE = 46.1719
ARG_OF_PERICENTER = 321.8022
MEAN_ANOMALY   = 38.0947

EPHEMERIS_TYPE = 0
CLASSIFICATION_TYPE = U
NORAD_CAT_ID   = 21574
ELEMENT_SET_NO = 999
REV_AT_EPOCH   = 81001
BSTAR          = .20193838E-3
MEAN_MOTION_DOT = .585E-5
MEAN_MOTION_DDOT = 0

CCSDS_OMM_VERS = 2.0
CREATION_DATE  = 
ORIGINATOR     = 

OBJECT_NAME    = ARIANE 40 R/B
OBJECT_ID      = 1991-050F
CENTER_NAME    = EARTH
REF_FRAME      = TEME
TIME_SYSTEM    = UTC
MEAN_ELEMENT_THEORY = SGP/SGP4

EPOCH          = 2026-01-28T17:38:56.683392
MEAN_MOTION    = 14.42861715
ECCENTRICITY   = .00031551
INCLINATION    = 98.2095
RA_OF_ASC_NODE = 82.4552
ARG_OF_PERICENTER = 173.7830
MEAN_ANOMALY   = 186.3401

EPHEMERIS_TYPE = 0
CLASSIFICATION_TYPE = U
NORAD_CAT_ID   = 21610
ELEMENT_SET_NO = 999
REV_AT_EPOCH   = 81323
BSTAR          = .17414975E-3
MEAN_MOTION_DOT = .54E-5
MEAN_MOTION_DDOT = 0

CCSDS_OMM_VERS = 2.0
CREATION_DATE  = 
ORIGINATOR     = 

OBJECT_NAME    = INTERCOSMOS 25
OBJECT_ID      = 1991-086A
CENTER_NAME    = EARTH
REF_FRAME      = TEME
TIME_SYSTEM    = UTC
MEAN_ELEMENT_THEORY = SGP/SGP4

EPOCH          = 2026-01-28T20:41:08.630016
MEAN_MOTION    = 12.11892313
ECCENTRICITY   = .14863073
INCLINATION    = 82.6093
RA_OF_ASC_NODE = 334.0762
ARG_OF_PERICENTER = 202.7530
MEAN_ANOMALY   = 150.0493

EPHEMERIS_TYPE = 0
CLASSIFICATION_TYPE = U
NORAD_CAT_ID   = 21819
ELEMENT_SET_NO = 999
REV_AT_EPOCH   = 49186
BSTAR          = .3709112E-3
MEAN_MOTION_DOT = .1886E-4
MEAN_MOTION_DDOT = 0

CCSDS_OMM_VERS = 2.0
CREATION_DATE  = 
ORIGINATOR     = 

OBJECT_NAME    = SL-8 R/B
OBJECT_ID      = 1992-008B
CENTER_NAME    = EARTH
REF_FRAME      = TEME
TIME_SYSTEM    = UTC
MEAN_ELEMENT_THEORY = SGP/SGP4

EPOCH          = 2026-01-28T20:59:28.279968
MEAN_MOTION    = 13.75968648
ECCENTRICITY   = .00334118
INCLINATION    = 82.9282
RA_OF_ASC_NODE = 297.3946
ARG_OF_PERICENTER = 245.2591
MEAN_ANOMALY   = 184.5605

EPHEMERIS_TYPE = 0
CLASSIFICATION_TYPE = U
NORAD_CAT_ID   = 21876
ELEMENT_SET_NO = 999
REV_AT_EPOCH   = 70394
BSTAR          = .57692634E-4
MEAN_MOTION_DOT = .71E-6
MEAN_MOTION_DDOT = 0

CCSDS_OMM_VERS = 2.0
CREATION_DATE  = 
ORIGINATOR     = 

OBJECT_NAME    = SL-8 R/B
OBJECT_ID      = 1992-020B
CENTER_NAME    = EARTH
REF_FRAME      = TEME
TIME_SYSTEM    = UTC
MEAN_ELEMENT_THEORY = SGP/SGP4

EPOCH          = 2026-01-28T23:42:48.780576
MEAN_MOTION    = 13.75542722
ECCENTRICITY   = .00298756
INCLINATION    = 82.9313
RA_OF_ASC_NODE = 183.2311
ARG_OF_PERICENTER = 50.3795
MEAN_ANOMALY   = 67.8906

EPHEMERIS_TYPE = 0
CLASSIFICATION_TYPE = U
NORAD_CAT_ID   = 21938
ELEMENT_SET_NO = 999
REV_AT_EPOCH   = 69567
BSTAR          = .16813704E-3
MEAN_MOTION_DOT = .178E-5
MEAN_MOTION_DDOT = 0

CCSDS_OMM_VERS = 2.0
CREATION_DATE  = 
ORIGINATOR     = 

OBJECT_NAME    = USA 81
OBJECT_ID      = 1992-023A
CENTER_NAME    = EARTH
REF_FRAME      = TEME
TIME_SYSTEM    = UTC
MEAN_ELEMENT_THEORY = SGP/SGP4

EPOCH          = 2026-01-28T20:09:09.188352
MEAN_MOTION    = 14.32351526
ECCENTRICITY   = .00022615
INCLINATION    = 85.0116
RA_OF_ASC_NODE = 154.4168
ARG_OF_PERICENTER = 111.7825
MEAN_ANOMALY   = 248.3608

EPHEMERIS_TYPE = 0
CLASSIFICATION_TYPE = U
NORAD_CAT_ID   = 21949
ELEMENT_SET_NO = 999
REV_AT_EPOCH   = 8908
BSTAR          = .12089528E-3
MEAN_MOTION_DOT = .346E-5
MEAN_MOTION_DDOT = 0

CCSDS_OMM_VERS = 2.0
CREATION_DATE  = 
ORIGINATOR     = 

OBJECT_NAME    = COSMOS 2219
OBJECT_ID      = 1992-076A
CENTER_NAME    = EARTH
REF_FRAME      = TEME
TIME_SYSTEM    = UTC
MEAN_ELEMENT_THEORY = SGP/SGP4

EPOCH          = 2026-01-28T14:59:13.169472
MEAN_MOTION    = 14.14079890
ECCENTRICITY   = .00207473
INCLINATION    = 71.0604
RA_OF_ASC_NODE = 101.8284
ARG_OF_PERICENTER = 262.6997
MEAN_ANOMALY   = 97.1767

EPHEMERIS_TYPE = 0
CLASSIFICATION_TYPE = U
NORAD_CAT_ID   = 22219
ELEMENT_SET_NO = 999
REV_AT_EPOCH   = 71271
BSTAR          = -.8980576E-4
MEAN_MOTION_DOT = -.218E-5
MEAN_MOTION_DDOT = 0

CCSDS_OMM_VERS = 2.0
CREATION_DATE  = 
ORIGINATOR     = 

OBJECT_NAME    = SL-16 R/B
OBJECT_ID      = 1992-076B
CENTER_NAME    = EARTH
REF_FRAME      = TEME
TIME_SYSTEM    = UTC
MEAN_ELEMENT_THEORY = SGP/SGP4

EPOCH          = 2026-01-28T22:54:25.223904
MEAN_MOTION    = 14.16850513
ECCENTRICITY   = .0012192
INCLINATION    = 70.9988
RA_OF_ASC_NODE = 272.0769
ARG_OF_PERICENTER = 165.7513
MEAN_ANOMALY   = 284.0789

EPHEMERIS_TYPE = 0
CLASSIFICATION_TYPE = U
NORAD_CAT_ID   = 22220
ELEMENT_SET_NO = 999
REV_AT_EPOCH   = 71620
BSTAR          = .54851186E-4
MEAN_MOTION_DOT = .62E-6
MEAN_MOTION_DDOT = 0

CCSDS_OMM_VERS = 2.0
CREATION_DATE  = 
ORIGINATOR     = 

OBJECT_NAME    = COSMOS 2221
OBJECT_ID      = 1992-080A
CENTER_NAME    = EARTH
REF_FRAME      = TEME
TIME_SYSTEM    = UTC
MEAN_ELEMENT_THEORY = SGP/SGP4

EPOCH          = 2026-01-28T20:13:49.110528
MEAN_MOTION    = 14.96024180
ECCENTRICITY   = .00137339
INCLINATION    = 82.5063
RA_OF_ASC_NODE = 317.2373
ARG_OF_PERICENTER = 333.4823
MEAN_ANOMALY   = 26.5695

EPHEMERIS_TYPE = 0
CLASSIFICATION_TYPE = U
NORAD_CAT_ID   = 22236
ELEMENT_SET_NO = 999
REV_AT_EPOCH   = 77483
BSTAR          = .29015941E-3
MEAN_MOTION_DOT = .3286E-4
MEAN_MOTION_DDOT = 0

CCSDS_OMM_VERS = 2.0
CREATION_DATE  = 
ORIGINATOR     = 

OBJECT_NAME    = SL-16 R/B
OBJECT_ID      = 1992-093B
CENTER_NAME    = EARTH
REF_FRAME      = TEME
TIME_SYSTEM    = UTC
MEAN_ELEMENT_THEORY = SGP/SGP4

EPOCH          = 2026-01-28T14:22:14.845152
MEAN_MOTION    = 14.15443592
ECCENTRICITY   = .00047187
INCLINATION    = 71.0216
RA_OF_ASC_NODE = 88.4310
ARG_OF_PERICENTER = 336.4516
MEAN_ANOMALY   = 23.6390

EPHEMERIS_TYPE = 0
CLASSIFICATION_TYPE = U
NORAD_CAT_ID   = 22285
ELEMENT_SET_NO = 999
REV_AT_EPOCH   = 70748
BSTAR          = -.23867494E-4
MEAN_MOTION_DOT = -.94E-6
MEAN_MOTION_DDOT = 0

CCSDS_OMM_VERS = 2.0
CREATION_DATE  = 
ORIGINATOR     = 

OBJECT_NAME    = COSMOS 2228
OBJECT_ID      = 1992-094A
CENTER_NAME    = EARTH
REF_FRAME      = TEME
TIME_SYSTEM    = UTC
MEAN_ELEMENT_THEORY = SGP/SGP4

EPOCH          = 2026-01-28T22:51:05.300352
MEAN_MOTION    = 14.97003073
ECCENTRICITY   = .00195917
INCLINATION    = 82.5175
RA_OF_ASC_NODE = 275.3593
ARG_OF_PERICENTER = 76.3731
MEAN_ANOMALY   = 283.9672

EPHEMERIS_TYPE = 0
CLASSIFICATION_TYPE = U
NORAD_CAT_ID   = 22286
ELEMENT_SET_NO = 999
REV_AT_EPOCH   = 77011
BSTAR          = .32030589E-3
MEAN_MOTION_DOT = .3725E-4
MEAN_MOTION_DDOT = 0

